FLOCK 4A-17             
1 44088U 19018L   22249.93904813  .00035945  00000+0  10586-2 0  9996
2 44088  97.3058 309.3843 0010544 171.2347 188.9083 15.34907799191177
FLOCK 4A-19             
1 44090U 19018N   22250.10208372  .00019449  00000+0  57368-3 0  9998
2 44090  97.3048 309.5778 0011485 174.9042 185.2321 15.34973198191200
FLOCK 4A-6              
1 44094U 19018S   22249.69513359  .00018418  00000+0  54647-3 0  9990
2 44094  97.3063 309.3249 0008815 176.5826 183.5480 15.34825330191158
FLOCK 4A-5              
1 44095U 19018T   22249.73217791  .00021799  00000+0  67459-3 0  9998
2 44095  97.3058 308.8303 0009150 180.0492 180.0751 15.33453636191125
FLOCK 4A-11             
1 44096U 19018U   22249.72757334  .00022114  00000+0  65519-3 0  9997
2 44096  97.3060 309.4699 0008413 179.1456 180.9803 15.34837239191161
FLOCK 4A-9              
1 44098U 19018W   22249.98239223  .00026525  00000+0  78153-3 0  9997
2 44098  97.3075 309.7628 0009205 188.0740 172.0356 15.34969726191194
FLOCK 4P-10             
1 44808U 19081E   22249.78401295  .00018853  00000+0  65691-3 0  9992
2 44808  97.3949 314.2152 0009060 292.7557  67.2726 15.29663596154324
FLOCK 4P-11             
1 44809U 19081F   22249.75151264  .00011497  00000+0  40271-3 0  9992
2 44809  97.3946 314.2315 0008913 294.6012  65.4299 15.29608266154324
FLOCK 4P-4              
1 44811U 19081H   22249.69812875  .00018119  00000+0  60211-3 0  9994
2 44811  97.4008 315.0595 0008053 278.4826  81.5502 15.31219548154346
FLOCK 4P-3              
1 44812U 19081J   22249.71670095  .00020764  00000+0  67374-3 0  9990
2 44812  97.3993 315.1590 0007747 277.7826  82.2536 15.31961410154354
FLOCK 4P-1              
1 44814U 19081L   22249.71404367  .00015698  00000+0  56126-3 0  9992
2 44814  97.3976 314.1584 0007697 285.5865  74.4525 15.28871249154305
FLOCK 4P-7              
1 44816U 19081N   22249.99725870  .00021387  00000+0  74480-3 0  9994
2 44816  97.3956 314.6325 0007452 283.0552  76.9857 15.29668153154368
FLOCK 4P-5              
1 44818U 19081Q   22249.76858408  .00014884  00000+0  51985-3 0  9994
2 44818  97.3960 314.5023 0006888 285.8817  74.1664 15.29653886154335
SKYSAT-C14              
1 45788U 20038BL  22249.52949718  .00026439  00000+0  33340-3 0  9998
2 45788  52.9926 290.9366 0010097  32.0702 328.0922 15.59384214127315
SKYSAT-C16              
1 45789U 20038BM  22249.76351720  .00024077  00000+0  29988-3 0  9994
2 45789  52.9933 289.6167 0012405  74.6708 285.5674 15.59739133127349
SKYSAT-C15              
1 45790U 20038BN  22249.52633589  .00027205  00000+0  33807-3 0  9997
2 45790  52.9917 290.8772 0014077  44.8568 315.3578 15.59697649127305
SKYSAT-C17              
1 46179U 20057BQ  22249.77597914  .00029170  00000+0  37741-3 0  9992
2 46179  52.9931  22.4176 0008270 328.5569  31.4947 15.58665020116627
SKYSAT-C18              
1 46180U 20057BR  22249.64095658  .00030011  00000+0  39002-3 0  9996
2 46180  52.9873  23.3299 0008928  37.5258 322.6374 15.58524357116628
SKYSAT-C19              
1 46235U 20057BS  22249.67432214  .00033507  00000+0  38939-3 0  9994
2 46235  52.9894  20.0509 0003185 339.5817  20.5067 15.61445574116671
FLOCK 4V-11             
1 46285U 20061P   22249.75771325  .00011283  00000+0  60396-3 0  9991
2 46285  97.4421 318.2496 0002992   5.5010 354.6255 15.15194712110806
FLOCK 4V-14             
1 46286U 20061Q   22249.68425344  .00011379  00000+0  60838-3 0  9998
2 46286  97.4423 318.1979 0002593 358.7151   1.4075 15.15233181110799
FLOCK 4V-8              
1 46288U 20061S   22249.67696064  .00006173  00000+0  33205-3 0  9992
2 46288  97.4422 318.1879 0002549  23.9945 336.1406 15.15214592110704
FLOCK 4V-6              
1 46289U 20061T   22249.73523746  .00005804  00000+0  31243-3 0  9996
2 46289  97.4432 318.2955 0002399  48.2083 311.9354 15.15213311110800
FLOCK 4V-5              
1 46290U 20061U   22249.71866317  .00003005  00000+0  17085-3 0  9999
2 46290  97.4429 317.9834 0002921  28.7764 331.3628 15.13624512110784
FLOCK 4V-7              
1 46291U 20061V   22249.77620797  .00010546  00000+0  56296-3 0  9991
2 46291  97.4427 318.3841 0002094  32.0998 328.0362 15.15310778110702
FLOCK 4V-10             
1 46296U 20061AA  22249.72359392  .00009664  00000+0  51640-3 0  9998
2 46296  97.4433 318.4970 0001017 108.5390 251.5953 15.15301768110779
FLOCK 4V-13             
1 46297U 20061AB  22249.78245573  .00010598  00000+0  56491-3 0  9997
2 46297  97.4436 318.5703 0001033  94.0698 266.0653 15.15362366110764
FLOCK 4V-1              
1 46313U 20061AT  22249.83198288  .00005176  00000+0  27876-3 0  9993
2 46313  97.4440 318.9737 0001574 237.2565 122.8516 15.15244697110801
FLOCK 4V-4              
1 46314U 20061AU  22249.73252670  .00011237  00000+0  60056-3 0  9991
2 46314  97.4437 318.8034 0001965 241.3950 118.7085 15.15251595110838
FLOCK 4V-2              
1 46321U 20061BB  22249.73605864  .00010247  00000+0  52536-3 0  9990
2 46321  97.4440 319.4104 0001962 242.5084 117.5949 15.16745420110756
FLOCK 4V-16             
1 46527U 20061BD  22249.75002353  .00016292  00000+0  71215-3 0  9995
2 46527  97.3937 319.4522 0007302 185.5832 174.5324 15.22142853107247
FLOCK 4V-15             
1 46528U 20061BE  22249.76569360  .00009984  00000+0  43859-3 0  9996
2 46528  97.3915 319.8915 0002228 196.9336 163.1826 15.22111345107637
FLOCK 4V-17             
1 46529U 20061BF  22249.66266157  .00006417  00000+0  28306-3 0  9992
2 46529  97.3884 319.4528 0002870 175.4088 184.7176 15.22115808106812
FLOCK 4V-18             
1 46597U 20061BG  22249.77351099  .00017355  00000+0  75914-3 0  9999
2 46597  97.3986 320.0977 0006591 190.0030 170.1076 15.22109952106192
FLOCK 4V-19             
1 46609U 20061BH  22249.73512440  .00006383  00000+0  28179-3 0  9998
2 46609  97.3866 319.3626 0003463 161.5551 198.5811 15.22087075105754
FLOCK 4V-20             
1 46612U 20061BJ  22249.93581786  .00006297  00000+0  28145-3 0  9990
2 46612  97.3975 320.0523 0006453 195.0902 165.0142 15.21661389105276
FLOCK 4V-22             
1 46735U 20061BL  22249.68965771  .00008085  00000+0  35619-3 0  9999
2 46735  97.3787 318.6947 0005323 184.4064 175.7126 15.22069888104087
FLOCK 4V-23             
1 46737U 20061BM  22249.72112169  .00008719  00000+0  38377-3 0  9999
2 46737  97.3882 319.3423 0004815 157.4568 202.6881 15.22076875104022
FLOCK 4V-24             
1 46738U 20061BN  22249.64928838  .00021034  00000+0  91912-3 0  9998
2 46738  97.3957 319.9458 0006176 203.5801 156.5153 15.22106618103583
FLOCK 4V-25             
1 46812U 20061BP  22250.13695525  .00013573  00000+0  59512-3 0  9990
2 46812  97.3856 319.8202 0005273 151.5829 208.5736 15.22089044103307
FLOCK 4E'-1             
1 46813U 20077A   22250.05404473  .00019188  00000+0  80651-3 0  9995
2 46813  97.4144 311.7081 0012161 125.6327 234.6044 15.23394854102898
FLOCK 4E'-7             
1 46814U 20077B   22250.07084068  .00017157  00000+0  72065-3 0  9996
2 46814  97.4147 311.8569 0013129 121.3273 238.9251 15.23430895102907
FLOCK 4E'-9             
1 46815U 20077C   22250.08390732  .00003607  00000+0  16649-3 0  9997
2 46815  97.4123 311.2401 0012823 117.6687 242.5851 15.20786585102889
FLOCK 4E'-8             
1 46816U 20077D   22250.09894176  .00025785  00000+0  10207-2 0  9994
2 46816  97.4163 312.4345 0010407 110.6846 249.5508 15.25370906102933
FLOCK 4E'-5             
1 46817U 20077E   22250.03998148  .00006717  00000+0  28424-3 0  9998
2 46817  97.4172 312.5289 0014547 106.7153 253.5682 15.23425419102934
FLOCK 4E'-3             
1 46819U 20077G   22250.08890533  .00006041  00000+0  25547-3 0  9997
2 46819  97.4146 312.3999 0015288 103.2586 257.0357 15.23477062102948
FLOCK 4E'-2             
1 46820U 20077H   22250.07886565  .00010280  00000+0  43639-3 0  9990
2 46820  97.4212 312.8706 0014210  95.6506 264.6351 15.23183600102945
FLOCK 4E'-4             
1 46821U 20077J   22250.10129520  .00006193  00000+0  27341-3 0  9996
2 46821  97.4165 312.4907 0015150  90.8380 269.4592 15.22006695102906
FLOCK 4E'-6             
1 46822U 20077K   22249.73334071  .00005734  00000+0  25815-3 0  9997
2 46822  97.4125 311.2993 0012597  99.0499 261.2171 15.21397479102869
FLOCK 4V-26             
1 46825U 20061BQ  22249.72215257  .00014299  00000+0  62713-3 0  9990
2 46825  97.3974 319.9720 0006004 205.9597 154.1337 15.22065877102789
FLOCK 4S-22             
1 47452U 21006AR  22249.67873990  .00009341  00000+0  47146-3 0  9990
2 47452  97.4382 307.4713 0010015   3.5620 356.5683 15.17284432 89588
FLOCK 4S-21             
1 47456U 21006AV  22249.68237497  .00011963  00000+0  60267-3 0  9993
2 47456  97.4388 307.5260 0009864   3.7379 356.3926 15.17282958 89588
FLOCK 4S-11             
1 47462U 21006BB  22249.83310686  .00004548  00000+0  25305-3 0  9994
2 47462  97.4339 305.9462 0008574  29.2826 330.8885 15.14118786 89512
FLOCK 4S-33             
1 47469U 21006BJ  22249.64394200  .00013825  00000+0  69585-3 0  9990
2 47469  97.4339 306.7876 0007027  25.3166 334.8410 15.17299573 89552
FLOCK 4S-12             
1 47471U 21006BL  22249.70530273  .00015650  00000+0  78737-3 0  9999
2 47471  97.4371 307.1033 0007815  24.5042 335.6562 15.17283442 89566
FLOCK 4S-13             
1 47472U 21006BM  22249.75637674  .00010190  00000+0  51367-3 0  9992
2 47472  97.4400 307.3832 0007565  23.6157 336.5422 15.17322610 89575
FLOCK 4S-35             
1 47473U 21006BN  22249.60127211  .00013830  00000+0  66644-3 0  9996
2 47473  97.4379 307.3462 0006788  23.3028 336.8512 15.18823195 89567
FLOCK 4S-8              
1 47474U 21006BP  22249.81125632  .00003020  00000+0  16465-3 0  9991
2 47474  97.4326 306.3936 0008740  23.6588 336.5044 15.15108886 89555
FLOCK 4S-31             
1 47475U 21006BQ  22249.74829246  .00012525  00000+0  62533-3 0  9993
2 47475  97.4324 306.8130 0006950  22.0931 338.0601 15.17607416 89574
FLOCK 4S-34             
1 47477U 21006BS  22249.69698045  .00014337  00000+0  72146-3 0  9994
2 47477  97.4383 307.2001 0007098  23.6602 336.4956 15.17298803 89569
